#dP2020  6 25  0  0  0.00000000      96 __u+U ITR00 FIT  IAC
## 2111 345600.00000000   900.00000000 59025 0.0000000000000
+  116   C06C07C08C09C10C11C12C13C14C16C19C20C21C22C23C24C25
+        C26C27C28C29C30C32C33C34C35C36C37C38C39C40C43C44C45
+        C46E01E02E03E04E05E07E08E09E11E12E13E14E15E18E19E21
+        E24E25E26E27E30E31E33E36G01G02G03G04G05G06G07G08G09
+        G10G11G12G13G14G15G16G17G18G19G20G21G22G24G25G26G27
+        G28G29G30G31G32J01J02J03R01R02R03R04R05R07R08R09R11
+        R12R13R14R15R16R17R18R19R20R21R22R23R24R26  0  0  0
++         8  7  7  8  9  7  7  9  7  8  7  6  7  7  8  6  7
++         6  9  8  8  7  7  7  7  6  6  7  5 10 11  9  9 10
++         8  6  7  5  6  6  7  5  6  5  6  6  7  6  5  6  6
++         5  6  6  6  5  4  6  4  4  4  3  4  6  5  6  5  4
++         5  4  5  6  5  6  5  5  6  4  5  5  6  4  4  6  5
++         5  5  5  5  5  8  8  8  6  7  6  6  6  6  5  5  7
++         7  6  5  7  5  7  6  5  7  7  4  7  5  7  0  0  0
%c M  cc GPS ccc cccc cccc cccc cccc ccccc ccccc ccccc ccccc
%c cc cc ccc ccc cccc cccc cccc cccc ccccc ccccc ccccc ccccc
%f  0.0000000  0.000000000  0.00000000000  0.000000000000000
%f  0.0000000  0.000000000  0.00000000000  0.000000000000000
%i    0    0    0    0      0      0      0      0         0
%i    0    0    0    0      0      0      0      0         0
/* INFORMATION & ANALYSIS CENTER (IAC)      ULTRA-RAPID DATA
/* S/V CLOCKS ARE ALIGNED TO GNSS TIME                      
/* G:C1WC2W R:C1PC2P E:C1XC5X C:C2IC6I J:C1CC2S             
/* PCV:IGS14_2101 OL/AL:FES2004  NONE     YN ORB:CoN CLK:CoN
*  2020 06 25 20 45  0.00000000
PC06 -23077.128135  33072.994661  11940.594308    763.440130
PC07  -8724.898722  34367.598238  23392.246582     16.804506
PC08 -14375.843113  17758.775938 -35401.657457   -334.325502
PC09 -10035.983081  32238.430724  25261.677537    634.465292
PC10   2967.748914  40573.330550  12095.180255   -252.866923
PC11  12648.153753  10101.777250 -22671.593802   -451.425154
PC12  -6831.386388  18553.387793 -19678.755120    411.923459
PC13   2030.901715  23764.303196 -34659.912316    509.899964
PC14  10457.379065  21015.093672  15170.740373    581.421630
PC16 -21212.382982  33573.718457  13971.517582   -610.310564
PC19 -14306.272904 -12028.634668 -20685.056431    455.497401
PC20  -5465.401441 -26119.914001  -8079.745543   -846.884000
PC21  -6999.975386  25183.127156  -9792.404775   -575.019400
PC22 -15051.893859   9393.310651 -21539.432673   -780.214417
PC23  21856.012776  -1145.323492 -17308.787855   -849.184528
PC24  12376.477931  19992.631430  15016.633913   -782.028101
PC25  24848.211691  12515.852720  -2059.081349   -664.457901
PC26  -5590.848308  15312.218168  22645.902427    731.590496
PC27  15870.209787 -18840.741980  13109.100896    353.677308
PC28  25510.360597 -10541.697699  -4080.036751   -207.938056
PC29 -20367.827225  -3120.490189  18808.703619 999999.999999
PC30  -3309.992864 -16146.718231  22514.795817    337.308919
PC32   6848.790711 -25202.622737   9829.696666   -876.850771
PC33  14391.736031  12059.542950  20662.759886   -807.352009
PC34   3850.673585  15940.533697 -22586.191329   -844.987341
PC35 -25154.484033  11267.554575   4247.265371   -779.632758
PC36 -24504.133986 -13213.505677   1869.636600 999999.999999
PC37   6590.546003 -14814.690602 -22689.001053   -857.105109
PC38 -11297.214295  21471.567582 -34494.095959 999999.999999
PC39 -17956.708582  35016.810223  14984.906325 999999.999999
PC40  -2955.363433  38348.723617  17494.653473     55.786450
PC43  20214.479481   3570.885959 -18921.837854   -254.692727
PC44 -15317.169659  19383.227416 -12954.451688 999999.999999
PC45 -21810.150877   1150.046362  17386.792389 999999.999999
PC46 -13007.580852 -19871.887742 -14657.649412 999999.999999
PE01  16097.664818  -5102.008486 -24309.453281   -885.298020
PE02 -16044.501314   5199.830357  24325.353378    142.962878
PE03 -19771.410856  15964.642356 -15187.600572   -313.806380
PE04  11431.850844 -27202.254346  -2309.981387   -553.226822
PE05 -16619.568003  -4803.412940 -24010.874288   -368.533251
PE07   3793.835231  22602.768822  18752.570835   -400.540299
PE08 -11113.477205  27326.037894   2558.288253   6158.596306
PE09  -3914.538472 -22441.580781 -18879.757560   6016.780627
PE11 -11478.006568 -14391.823461  23164.428993   3694.299520
PE12  11647.147948 -15641.526133  22270.233029   5737.226745
PE13  11288.524158  14348.279685 -23300.719001    401.869472
PE14  -9459.120177 -11461.622096  17987.569735  -1062.347959
PE15 -11337.150784  15660.554593 -22410.261078    862.232525
PE18  12873.290318  16337.441011 -25127.387668  -1164.044837
PE19  19924.329782 -14050.900414  16795.865538     12.170769
PE21  21425.170542  14243.225975 -14644.607750   -606.610214
PE24 -13983.554464 -25785.119473  -4032.226022   5383.549829
PE25 -21417.504118 -14348.825212  14546.401624   -512.690511
PE26  27459.706314   4576.051144 -10059.758309   3031.386469
PE27  14307.028217  25640.706515   3757.753574    190.748270
PE30  -1652.023210  21706.868843  20046.708583   3797.144176
PE31   1170.489575 -21917.724519 -19848.576890   -472.996122
PE33  27317.419677  -7772.545844   8354.230651   -465.660853
PE36 -27280.638309  -4614.085935  10511.340195    542.240440
PG01  16248.892518  14165.911108 -15967.309100     16.477447
PG02   6825.224108 -14547.325600  21783.738599   -477.761281
PG03  12176.431062  22926.045219   5811.206753   -220.415063
PG04   9282.149726  12299.558870  21643.454319   -107.033208
PG05    268.243576 -23446.713023  12141.688568    -15.374426
PG06  19066.200525  -7827.179177  16827.251214   -294.201778
PG07  26185.488193   5838.248735    680.822486   -312.867388
PG08   -883.611471  19792.304757 -17551.858559    -38.804421
PG09  17646.775535    870.577475  19788.041496   -242.778854
PG10 -14266.573968   4815.356061 -21791.476620   -381.857247
PG11   6399.503540  15254.067958 -21253.947892   -238.568473
PG12 -10436.893839 -23761.617683   5780.548109    101.704905
PG13   9878.194286 -20918.544159 -13078.043782     21.397294
PG14 -18824.140865  18589.902120     92.723552     -3.245161
PG15  -2356.918084 -19803.581503 -17679.405879   -221.782042
PG16   -857.175472  24280.624779   9968.313406   -174.943349
PG17  21021.233674 -13537.177943  -8472.857807    286.373256
PG18 -25934.632603  -5797.968714    200.449008    230.104965
PG19  20112.454244 -17253.421006  -1781.640335   -140.346959
PG20 -18413.339387  -6936.397381 -18018.256521    527.441190
PG21 -24036.467405   3857.630193  -9551.180268     16.102849
PG22   9540.388343  24785.513236  -1890.720466   -775.962281
PG24 -14817.672055 -14522.298834 -16981.012297    -14.830978
PG25 -15736.394175 -16339.028074  13787.687075     16.688255
PG26  -8492.140290  16233.491183  19117.099714    232.060377
PG27 -10554.986815  22220.734568  -9707.449969   -329.937661
PG28  13504.503203  -5892.047006 -21529.397171    705.386248
PG29 -14528.761511  -5588.234626  21478.509682   -136.157404
PG30  24635.246808  -1900.576125  -9981.246539   -249.247637
PG31 -18239.357827   8579.157861  17480.475570    -51.514093
PG32 -20297.794464  14845.837332  -8226.594146    306.459088
PJ01 -21511.180107  30357.115479 -15267.332040   -281.756868
PJ02 -25623.193206  21049.381320  30913.398366     -0.743887
PJ03 -34327.257580  23845.440234   -410.946528     -4.524167
PR01  11760.976099  -9961.486027  20325.855301     63.617487
PR02   6520.696421 -24492.627827   3165.077030    433.337163
PR03  -2427.240441 -21349.674120 -13738.020331     17.420529
PR04  -9709.650047  -6026.144421 -22774.260815     54.058292
PR05 -11580.745831  12593.967290 -18896.545532     52.971647
PR07   2790.127838  20910.657567  14351.721004    -37.891657
PR08   9862.244434   6033.328026  22794.151529    -53.068422
PR09   3965.542047  16047.965130  19469.983209    140.030208
PR11  20593.640381  12020.695753  -9116.719369    -28.357927
PR12  14301.058883   -782.329234 -21074.745852    142.035665
PR13   -421.236949 -13778.768628 -21474.185764    -40.436054
PR14 -14826.450250 -18686.458994  -8996.561467     52.680753
PR15 -20492.110636 -12664.455742   8403.707358    106.914056
PR16 -14075.114506   1602.467004  21222.243412     -4.358483
PR17  -5206.810630  -9385.676174  23143.492146    336.076359
PR18 -19987.402778   -889.749722  15797.277387     40.110953
PR19 -24449.042359   7269.114252    412.870058    -99.562504
PR20 -13783.491065  12347.388419 -17533.116532   -415.167665
PR21   6108.877497   8964.055628 -23090.493918   -133.860926
PR22  21495.605464   -475.688601 -13821.520523 999999.999999
PR23  22352.494487 -10386.461383   6557.744920    314.561260
PR24  12945.740801 -12825.548426  17852.607899      3.992557
PR26 -17601.678264  12276.198096 -13804.007913 999999.999999
EOF
